[{"OBJECT_NAME":"YUNHAI-1 02","OBJECT_ID":"2019-063A","EPOCH":"2026-03-09T23:04:05.569248","MEAN_MOTION":14.32707277,"ECCENTRICITY":0.00067235,"INCLINATION":98.4179,"RA_OF_ASC_NODE":82.2649,"ARG_OF_PERICENTER":91.6948,"MEAN_ANOMALY":268.5007,"EPHEMERIS_TYPE":0,"CLASSIFICATION_TYPE":"U","NORAD_CAT_ID":44547,"ELEMENT_SET_NO":999,"REV_AT_EPOCH":33766,"BSTAR":0.00012714191,"MEAN_MOTION_DOT":3.04e-6,"MEAN_MOTION_DDOT":0},{"OBJECT_NAME":"METEOR 2-5 DEB","OBJECT_ID":"1979-095CE","EPOCH":"2026-03-06T23:25:56.036928","MEAN_MOTION":14.33292715,"ECCENTRICITY":0.00111611,"INCLINATION":81.1989,"RA_OF_ASC_NODE":266.9519,"ARG_OF_PERICENTER":2.3192,"MEAN_ANOMALY":357.8041,"EPHEMERIS_TYPE":0,"CLASSIFICATION_TYPE":"U","NORAD_CAT_ID":39603,"ELEMENT_SET_NO":999,"REV_AT_EPOCH":62882,"BSTAR":0.0015998335,"MEAN_MOTION_DOT":4.419e-5,"MEAN_MOTION_DDOT":0}]
